STARLINK-32468          
1 62149U 24224L   26068.25273075  .00039213  00000+0  14269-2 0  9990
2 62149  43.0007 160.5338 0000853 242.2543 117.8222 15.27581167 72254
HAWK-11C                
1 62381U 24247E   26068.51221537  .00009223  00000+0  33290-3 0  9992
2 62381  45.0045 114.8762 0005900 329.7040  30.3502 15.28848020 67743
